
TERRESTAR-1             
1 35496U 09035A   25064.44558388 -.00000063  00000+0  00000+0 0  9994
2 35496   4.8247  48.4291 0002762 299.4925 224.8864  1.00272390 57458
COSMOS 2451             
1 35498U 09036A   25066.41653693  .00000032  00000+0  16695-3 0  9997
2 35498  82.4917  21.9675 0007483 136.1007 224.0667 12.40858972709809
COSMOS 2453             
1 35500U 09036C   25065.66816635  .00000032  00000+0  16378-3 0  9992
2 35500  82.4925  18.3180 0008163 100.2635 259.9365 12.41507007709968
DEIMOS-1                
1 35681U 09041A   25066.41214782  .00001365  00000+0  21307-3 0  9995
2 35681  97.6918 240.6009 0000258 182.1785 177.9424 14.74346880838089
DUBAISAT-1              
1 35682U 09041B   25066.45101190  .00002428  00000+0  38092-3 0  9998
2 35682  97.9375 202.1608 0011733 126.6254 233.6035 14.73501610836384
UK-DMC 2                
1 35683U 09041C   25066.51598248  .00001816  00000+0  27861-3 0  9992
2 35683  97.8144 210.1898 0001138  81.5224 278.6114 14.74775457837800
APRIZESAT 4             
1 35684U 09041D   25065.72115050  .00001376  00000+0  17477-3 0  9994
2 35684  98.1981 125.5681 0044970  37.1183 323.3124 14.82711267842066
NANOSAT 1B              
1 35685U 09041E   25066.29584494  .00003532  00000+0  35888-3 0  9992
2 35685  98.0871 167.0933 0050819 259.5623  99.9865 14.90548920844864
APRIZESAT 3             
1 35686U 09041F   25066.30363213  .00004734  00000+0  43388-3 0  9998
2 35686  98.1381 194.8766 0065118 166.4855 193.8127 14.93805351846667
ASIASAT 5               
1 35696U 09042A   25065.79939016 -.00000318  00000+0  00000+0 0  9997
2 35696   0.0320 249.1411 0001709  81.2375 222.6637  1.00270981 57021
NAVSTAR 64 (USA 206)    
1 35752U 09043A   25064.97120736 -.00000043  00000+0  00000+0 0  9996
2 35752  55.8879  45.8998 0053787  74.8633 295.2232  2.00553647113978
JCSAT-12 (JCSAT-RA)     
1 35755U 09044A   25064.85183785 -.00000335  00000+0  00000+0 0  9994
2 35755   0.0219 240.9562 0001418 164.0949 197.4781  1.00282171 56969
OPTUS D3                
1 35756U 09044B   25065.54122405 -.00000158  00000+0  00000+0 0  9997
2 35756   0.6877  85.8438 0005515 266.0258 163.4609  1.00271701 56871
NIMIQ 5                 
1 35873U 09050A   25065.04051736 -.00000265  00000+0  00000+0 0  9996
2 35873   0.0486 272.6999 0002612  64.2354 128.9452  1.00271170 56657
OCEANSAT-2              
1 35931U 09051A   25066.38168041 -.00000052  00000+0 -10122-4 0  9994
2 35931  98.2356  95.2651 0017003 112.0578 248.2396 13.99572735814030
SWISSCUBE               
1 35932U 09051B   25065.65012430  .00001971  00000+0  41264-3 0  9993
2 35932  98.4409 320.0794 0005924 219.0308 141.0465 14.60897089820852
BEESAT-1                
1 35933U 09051C   25065.65664008  .00001683  00000+0  35797-3 0  9992
2 35933  98.4344 320.6054 0004204 233.2542 126.8272 14.60376476820910
ITUPSAT1                
1 35935U 09051E   25065.66471387  .00001535  00000+0  33575-3 0  9999
2 35935  98.4440 320.2300 0006378 245.0648 114.9889 14.59204403820528
AMAZONAS 2              
1 35942U 09054A   25066.24471200 -.00000295  00000+0  00000+0 0  9995
2 35942   0.6038  90.1760 0003356 250.1803 212.1426  1.00271450 56493
COMSATBW-1              
1 35943U 09054B   25065.77565223  .00000012  00000+0  00000+0 0  9998
2 35943   0.0195 111.4289 0002756 242.4417 153.1323  1.00276257 56617
WORLDVIEW-2 (WV-2)      
1 35946U 09055A   25066.40546907  .00000288  00000+0  11198-3 0  9990
2 35946  98.4813 141.4309 0003921 158.4192 201.7160 14.36982914808694
DMSP 5D-3 F18 (USA 210) 
1 35951U 09057A   25066.43156966  .00000451  00000+0  25779-3 0  9995
2 35951  98.8506  44.7794 0011839 133.4606 226.7554 14.14530122793576
NSS-12                  
1 36032U 09058A   25065.77125036  .00000061  00000+0  00000+0 0  9990
2 36032   0.0585 295.0032 0003590  37.0585 167.2972  1.00271288 56239
THOR 6                  
1 36033U 09058B   25064.31433586 -.00000017  00000+0  00000+0 0  9994
2 36033   0.0230 231.4694 0001868 122.0011 282.1298  1.00271638 56305
SMOS                    
1 36036U 09059A   25066.10523147  .00000552  00000+0  19004-3 0  9991
2 36036  98.4427 255.2289 0001306  91.3996 268.7341 14.39720149806380
PROBA-2                 
1 36037U 09059B   25066.12318930  .00000475  00000+0  12212-3 0  9994
2 36037  98.2357 251.2952 0012076 284.2764  75.7092 14.54447163813719
SJ-11-01                
1 36088U 09061A   25066.44568750  .00001300  00000+0  26334-3 0  9993
2 36088  97.9623  57.3028 0012376  58.4564  59.1732 14.62827049816318
COSMOS 2455             
1 36095U 09063A   25066.36629816  .00000017  00000+0  66109-4 0  9994
2 36095  67.1483 308.1547 0003107 268.5430  91.5299 13.96985603780113
INTELSAT 14 (IS-14)     
1 36097U 09064A   25065.23767829 -.00000283  00000+0  00000+0 0  9998
2 36097   0.0158  91.6463 0002506 259.7432 213.3653  1.00271046 55919
EUTELSAT 36B            
1 36101U 09065A   25066.05253270  .00000100  00000+0  00000+0 0  9993
2 36101   0.0708  24.0365 0006791 328.8115 241.5633  1.00273856 56129
INTELSAT 15 (IS-15)     
1 36106U 09067A   25066.05939625 -.00000197  00000+0  00000+0 0  9992
2 36106   0.0165 187.6545 0002381 159.4704 284.4043  1.00271266 55910
WGS F3 (USA 211)        
1 36108U 09068A   25065.32612642  .00000039  00000+0  00000+0 0  9995
2 36108   0.1521  88.1817 0001796 103.5572 269.6831  1.00257551 41914
YAOGAN-7                
1 36110U 09069A   25066.38710193  .00001049  00000+0  15491-3 0  9992
2 36110  98.0702 308.6551 0026306 102.1059 258.3100 14.77191280820731
COSMOS 2456 [GLONASS-M] 
1 36111U 09070A   25063.78650921  .00000017  00000+0  00000+0 0  9998
2 36111  64.7415  87.0181 0006201 302.3217 203.6184  2.13103583118429
COSMOS 2457 [GLONASS-M] 
1 36112U 09070B   25065.26359563  .00000018  00000+0  00000+0 0  9993
2 36112  64.7274  86.8207 0002890 198.4713 132.3717  2.13101031118453
YAOGAN-8                
1 36121U 09072A   25065.70974699  .00000335  00000+0  11649-2 0  9993
2 36121 100.2717 328.7557 0020526 296.8465  63.0544 13.05056048727690
XIWANG-1 (HOPE-1)       
1 36122U 09072B   25066.37806380  .00000011  00000+0  14391-3 0  9998
2 36122 100.3371  24.1925 0007039 217.3976 142.6648 13.16420197731688
DIRECTV 12              
1 36131U 09075A   25066.09354022 -.00000115  00000+0  00000+0 0  9995
2 36131   0.0346 353.2333 0000390   8.4473  94.3217  1.00271678 55704
BEIDOU-2 G1             
1 36287U 10001A   25065.30575509 -.00000290  00000+0  00000+0 0  9990
2 36287   3.2036  60.3706 0005210 287.0436  67.3387  1.00268755 55471
RADUGA-1M 2             
1 36358U 10002A   25066.11048187 -.00000238  00000+0  00000+0 0  9999
2 36358   2.3990  84.7792 0007900 242.5477 220.1428  0.98969146 55320
SDO                     
1 36395U 10005A   25065.30210252 -.00000083  00000+0  00000+0 0  9995
2 36395  33.6684  93.5035 0001106 194.4496 243.2311  1.00274971 55342
INTELSAT 16 (IS-16)     
1 36397U 10006A   25065.31133389 -.00000254  00000+0  00000+0 0  9994
2 36397   0.0177 118.2949 0001843 219.5198 222.3303  1.00271312 54966
COSMOS 2460 [GLONASS-M] 
1 36402U 10007C   25061.79072441 -.00000052  00000+0  00000+0 0  9997
2 36402  65.6770 330.3752 0002107 358.9311 182.9931  2.13106034116686
EWS-G2 (GOES 15)        
1 36411U 10008A   25065.77455295  .00000028  00000+0  00000+0 0  9994
2 36411   0.0695  93.6898 0004080 187.5434 223.6365  1.00269954 54950
YAOGAN-9 01A            
1 36413U 10009A   25065.68895969 -.00000003  00000+0  70276-4 0  9994
2 36413  63.3699 127.2462 0497697  18.2242 343.5929 13.45550507737063
YAOGAN-9 01B            
1 36414U 10009B   25066.41474001  .00000018  00000+0  86591-4 0  9999
2 36414  63.3711 124.9900 0498391  17.4464 344.3015 13.45560796737324
YAOGAN-9 01C            
1 36415U 10009C   25065.52151469  .00000002  00000+0  73839-4 0  9995
2 36415  63.3708 127.8464 0499078  17.7580 344.0208 13.45558804737174
ECHOSTAR 14             
1 36499U 10010A   25064.49836358 -.00000007  00000+0  00000+0 0  9992
2 36499   0.0170 182.5775 0002018 161.2024 240.1901  1.00271537 54836
CRYOSAT 2               
1 36508U 10013A   25065.73465508  .00000390  00000+0  96109-4 0  9993
2 36508  92.0193 164.4611 0003651  99.5609 260.6011 14.51905603790257
SES-1                   
1 36516U 10016A   25066.09388773 -.00000126  00000+0  00000+0 0  9991
2 36516   0.0553 292.1055 0002631  48.5794 117.1495  1.00272121 54451
COSMOS 2463             
1 36519U 10017A   25066.39756434  .00000094  00000+0  87285-4 0  9999
2 36519  82.9581 232.6610 0035791 347.3828  26.8693 13.71615251744033
ASTRA 3B                
1 36581U 10021A   25065.74369257  .00000126  00000+0  00000+0 0  9995
2 36581   0.2571  91.1579 0002912 274.2487  90.5119  1.00273064 54186
COMSATBW-2              
1 36582U 10021B   25064.87237516  .00000080  00000+0  00000+0 0  9990
2 36582   0.0290 106.3873 0001528 244.7006 139.9643  1.00276058 54265
NAVSTAR 65 (USA 213)    
1 36585U 10022A   25064.29142098  .00000059  00000+0  00000+0 0  9996
2 36585  54.3676 227.4591 0121713  63.6670 295.2617  2.00564549108188
BEIDOU-2 G3             
1 36590U 10024A   25066.05826681 -.00000146  00000+0  00000+0 0  9995
2 36590   3.4123  62.3257 0008237 320.6680 242.5872  1.00272512 54096
BADR-5                  
1 36592U 10025A   25065.71632752  .00000134  00000+0  00000+0 0  9990
2 36592   0.0300 139.3787 0000718 256.6387  52.5423  1.00276580 48520
SJ-12                   
1 36596U 10027A   25066.38866691  .00007055  00000+0  43308-3 0  9992
2 36596  97.7733  69.7317 0005299 253.1717 106.8930 15.10416035804286
TANDEM-X                
1 36605U 10030A   25065.52696507  .00003373  00000+0  16375-3 0  9992
2 36605  97.4472  74.9118 0001872  91.3111 268.8338 15.19145488815636
